[
  {
    "sno": 1,
    "name": "Ash Giovannilli",
    "initiated": "",
    "labTestInProgress": "",
    "labTestCompleted": "",
    "diagnosisInProcess": "",
    "completed": "Y",
    "testpositive": "Y",
    "admit": "",
    "quarantine": "Y",
    "pincode": 110001
  },
  {
    "sno": 2,
    "name": "Alexine Chipps",
    "initiated": "",
    "labTestInProgress": "",
    "labTestCompleted": "",
    "diagnosisInProcess": "",
    "completed": "Y",
    "testpositive": "",
    "admit": "",
    "quarantine": "",
    "pincode": 560003
  },
  {
    "sno": 3,
    "name": "Thain Snape",
    "initiated": "",
    "labTestInProgress": "",
    "labTestCompleted": "",
    "diagnosisInProcess": "",
    "completed": "Y",
    "testpositive": "",
    "admit": "",
    "quarantine": "",
    "pincode": 400001
  },
  {
    "sno": 4,
    "name": "Merell O'Flaherty",
    "initiated": "",
    "labTestInProgress": "",
    "labTestCompleted": "",
    "diagnosisInProcess": "",
    "completed": "Y",
    "testpositive": "",
    "admit": "",
    "quarantine": "",
    "pincode": 700004
  },
  {
    "sno": 5,
    "name": "Maximilien Coultard",
    "initiated": "",
    "labTestInProgress": "",
    "labTestCompleted": "",
    "diagnosisInProcess": "",
    "completed": "Y",
    "testpositive": "",
    "admit": "",
    "quarantine": "",
    "pincode": 110001
  },
  {
    "sno": 6,
    "name": "Brien Wittier",
    "initiated": "",
    "labTestInProgress": "",
    "labTestCompleted": "",
    "diagnosisInProcess": "",
    "completed": "Y",
    "testpositive": "",
    "admit": "",
    "quarantine": "",
    "pincode": 560003
  },
  {
    "sno": 7,
    "name": "Tedra Brunini",
    "initiated": "",
    "labTestInProgress": "",
    "labTestCompleted": "",
    "diagnosisInProcess": "",
    "completed": "Y",
    "testpositive": "",
    "admit": "",
    "quarantine": "",
    "pincode": 400001
  },
  {
    "sno": 8,
    "name": "Thedrick Cowey",
    "initiated": "",
    "labTestInProgress": "",
    "labTestCompleted": "",
    "diagnosisInProcess": "",
    "completed": "Y",
    "testpositive": "Y",
    "admit": "Y",
    "quarantine": "",
    "pincode": 700004
  },
  {
    "sno": 9,
    "name": "Zak Purvis",
    "initiated": "",
    "labTestInProgress": "",
    "labTestCompleted": "",
    "diagnosisInProcess": "",
    "completed": "Y",
    "testpositive": "",
    "admit": "",
    "quarantine": "",
    "pincode": 110001
  },
  {
    "sno": 10,
    "name": "Gilbert McIlheran",
    "initiated": "",
    "labTestInProgress": "",
    "labTestCompleted": "",
    "diagnosisInProcess": "",
    "completed": "Y",
    "testpositive": "Y",
    "admit": "Y",
    "quarantine": "",
    "pincode": 560003
  },
  {
    "sno": 11,
    "name": "Marne Tarren",
    "initiated": "",
    "labTestInProgress": "",
    "labTestCompleted": "",
    "diagnosisInProcess": "",
    "completed": "Y",
    "testpositive": "",
    "admit": "",
    "quarantine": "",
    "pincode": 400001
  },
  {
    "sno": 12,
    "name": "Filberto Raunds",
    "initiated": "",
    "labTestInProgress": "",
    "labTestCompleted": "",
    "diagnosisInProcess": "",
    "completed": "Y",
    "testpositive": "Y",
    "admit": "Y",
    "quarantine": "",
    "pincode": 700004
  },
  {
    "sno": 13,
    "name": "Brandon Eaden",
    "initiated": "",
    "labTestInProgress": "",
    "labTestCompleted": "",
    "diagnosisInProcess": "",
    "completed": "Y",
    "testpositive": "Y",
    "admit": "Y",
    "quarantine": "",
    "pincode": 110001
  },
  {
    "sno": 14,
    "name": "Tommy Kindread",
    "initiated": "",
    "labTestInProgress": "",
    "labTestCompleted": "",
    "diagnosisInProcess": "",
    "completed": "Y",
    "testpositive": "Y",
    "admit": "Y",
    "quarantine": "",
    "pincode": 560003
  },
  {
    "sno": 15,
    "name": "Alix Alben",
    "initiated": "",
    "labTestInProgress": "",
    "labTestCompleted": "",
    "diagnosisInProcess": "",
    "completed": "Y",
    "testpositive": "",
    "admit": "",
    "quarantine": "",
    "pincode": 400001
  },
  {
    "sno": 16,
    "name": "Chrissie Britcher",
    "initiated": "",
    "labTestInProgress": "",
    "labTestCompleted": "",
    "diagnosisInProcess": "",
    "completed": "Y",
    "testpositive": "Y",
    "admit": "Y",
    "quarantine": "",
    "pincode": 700004
  },
  {
    "sno": 17,
    "name": "Burtie Munnis",
    "initiated": "",
    "labTestInProgress": "",
    "labTestCompleted": "",
    "diagnosisInProcess": "",
    "completed": "Y",
    "testpositive": "Y",
    "admit": "",
    "quarantine": "Y",
    "pincode": 110001
  },
  {
    "sno": 18,
    "name": "Ed Lyston",
    "initiated": "",
    "labTestInProgress": "",
    "labTestCompleted": "",
    "diagnosisInProcess": "",
    "completed": "Y",
    "testpositive": "Y",
    "admit": "Y",
    "quarantine": "",
    "pincode": 560003
  },
  {
    "sno": 19,
    "name": "Siegfried Dunkley",
    "initiated": "",
    "labTestInProgress": "",
    "labTestCompleted": "",
    "diagnosisInProcess": "",
    "completed": "Y",
    "testpositive": "",
    "admit": "",
    "quarantine": "",
    "pincode": 400001
  },
  {
    "sno": 20,
    "name": "Florette Ingon",
    "initiated": "",
    "labTestInProgress": "",
    "labTestCompleted": "",
    "diagnosisInProcess": "",
    "completed": "Y",
    "testpositive": "Y",
    "admit": "Y",
    "quarantine": "",
    "pincode": 700004
  },
  {
    "sno": 21,
    "name": "Jerry Aynsley",
    "initiated": "",
    "labTestInProgress": "",
    "labTestCompleted": "",
    "diagnosisInProcess": "",
    "completed": "Y",
    "testpositive": "",
    "admit": "",
    "quarantine": "",
    "pincode": 110001
  },
  {
    "sno": 22,
    "name": "Kellie Lanceter",
    "initiated": "",
    "labTestInProgress": "",
    "labTestCompleted": "",
    "diagnosisInProcess": "",
    "completed": "Y",
    "testpositive": "Y",
    "admit": "Y",
    "quarantine": "",
    "pincode": 560003
  },
  {
    "sno": 23,
    "name": "Garwood Bibbie",
    "initiated": "",
    "labTestInProgress": "",
    "labTestCompleted": "",
    "diagnosisInProcess": "",
    "completed": "Y",
    "testpositive": "Y",
    "admit": "",
    "quarantine": "Y",
    "pincode": 400001
  },
  {
    "sno": 24,
    "name": "Kareem Tylor",
    "initiated": "",
    "labTestInProgress": "",
    "labTestCompleted": "",
    "diagnosisInProcess": "",
    "completed": "Y",
    "testpositive": "Y",
    "admit": "Y",
    "quarantine": "",
    "pincode": 700004
  },
  {
    "sno": 25,
    "name": "Bernard Goward",
    "initiated": "",
    "labTestInProgress": "",
    "labTestCompleted": "",
    "diagnosisInProcess": "",
    "completed": "Y",
    "testpositive": "",
    "admit": "",
    "quarantine": "",
    "pincode": 110001
  },
  {
    "sno": 26,
    "name": "Linnie Gurrado",
    "initiated": "",
    "labTestInProgress": "",
    "labTestCompleted": "",
    "diagnosisInProcess": "",
    "completed": "Y",
    "testpositive": "Y",
    "admit": "Y",
    "quarantine": "",
    "pincode": 560003
  },
  {
    "sno": 27,
    "name": "Helyn Franseco",
    "initiated": "",
    "labTestInProgress": "",
    "labTestCompleted": "",
    "diagnosisInProcess": "",
    "completed": "Y",
    "testpositive": "Y",
    "admit": "",
    "quarantine": "Y",
    "pincode": 400001
  },
  {
    "sno": 28,
    "name": "Robina Spowart",
    "initiated": "",
    "labTestInProgress": "",
    "labTestCompleted": "",
    "diagnosisInProcess": "",
    "completed": "Y",
    "testpositive": "Y",
    "admit": "Y",
    "quarantine": "",
    "pincode": 700004
  },
  {
    "sno": 29,
    "name": "Helen-elizabeth Issacson",
    "initiated": "",
    "labTestInProgress": "",
    "labTestCompleted": "",
    "diagnosisInProcess": "",
    "completed": "Y",
    "testpositive": "",
    "admit": "",
    "quarantine": "",
    "pincode": 110001
  },
  {
    "sno": 30,
    "name": "Brockie Panks",
    "initiated": "",
    "labTestInProgress": "",
    "labTestCompleted": "",
    "diagnosisInProcess": "",
    "completed": "Y",
    "testpositive": "Y",
    "admit": "Y",
    "quarantine": "",
    "pincode": 560003
  },
  {
    "sno": 31,
    "name": "Yasmin Burel",
    "initiated": "",
    "labTestInProgress": "",
    "labTestCompleted": "",
    "diagnosisInProcess": "",
    "completed": "Y",
    "testpositive": "Y",
    "admit": "",
    "quarantine": "Y",
    "pincode": 400001
  },
  {
    "sno": 32,
    "name": "Ad Pyrton",
    "initiated": "",
    "labTestInProgress": "",
    "labTestCompleted": "",
    "diagnosisInProcess": "",
    "completed": "Y",
    "testpositive": "Y",
    "admit": "",
    "quarantine": "Y",
    "pincode": 700004
  },
  {
    "sno": 33,
    "name": "Rhiamon Maghull",
    "initiated": "",
    "labTestInProgress": "",
    "labTestCompleted": "",
    "diagnosisInProcess": "",
    "completed": "Y",
    "testpositive": "",
    "admit": "",
    "quarantine": "",
    "pincode": 110001
  },
  {
    "sno": 34,
    "name": "Rock Redshaw",
    "initiated": "",
    "labTestInProgress": "",
    "labTestCompleted": "",
    "diagnosisInProcess": "",
    "completed": "Y",
    "testpositive": "Y",
    "admit": "",
    "quarantine": "Y",
    "pincode": 560003
  },
  {
    "sno": 35,
    "name": "Alf Glitherow",
    "initiated": "",
    "labTestInProgress": "",
    "labTestCompleted": "",
    "diagnosisInProcess": "",
    "completed": "Y",
    "testpositive": "Y",
    "admit": "",
    "quarantine": "",
    "pincode": 400001
  },
  {
    "sno": 36,
    "name": "Raffarty Sutherby",
    "initiated": "",
    "labTestInProgress": "",
    "labTestCompleted": "",
    "diagnosisInProcess": "",
    "completed": "Y",
    "testpositive": "Y",
    "admit": "",
    "quarantine": "Y",
    "pincode": 700004
  },
  {
    "sno": 37,
    "name": "Katheryn Trulocke",
    "initiated": "",
    "labTestInProgress": "",
    "labTestCompleted": "",
    "diagnosisInProcess": "",
    "completed": "Y",
    "testpositive": "",
    "admit": "",
    "quarantine": "",
    "pincode": 110001
  },
  {
    "sno": 38,
    "name": "Gradey MacCumeskey",
    "initiated": "",
    "labTestInProgress": "",
    "labTestCompleted": "",
    "diagnosisInProcess": "",
    "completed": "Y",
    "testpositive": "Y",
    "admit": "",
    "quarantine": "",
    "pincode": 560003
  },
  {
    "sno": 39,
    "name": "Cissiee Morde",
    "initiated": "",
    "labTestInProgress": "",
    "labTestCompleted": "",
    "diagnosisInProcess": "",
    "completed": "Y",
    "testpositive": "Y",
    "admit": "",
    "quarantine": "",
    "pincode": 400001
  },
  {
    "sno": 40,
    "name": "Reuben Martin",
    "initiated": "",
    "labTestInProgress": "",
    "labTestCompleted": "",
    "diagnosisInProcess": "",
    "completed": "Y",
    "testpositive": "Y",
    "admit": "",
    "quarantine": "Y",
    "pincode": 700004
  },
  {
    "sno": 41,
    "name": "Sherrie Roderham",
    "initiated": "",
    "labTestInProgress": "",
    "labTestCompleted": "",
    "diagnosisInProcess": "",
    "completed": "Y",
    "testpositive": "",
    "admit": "",
    "quarantine": "",
    "pincode": 110001
  },
  {
    "sno": 42,
    "name": "Silvia Joinsey",
    "initiated": "",
    "labTestInProgress": "",
    "labTestCompleted": "",
    "diagnosisInProcess": "",
    "completed": "Y",
    "testpositive": "Y",
    "admit": "",
    "quarantine": "",
    "pincode": 560003
  },
  {
    "sno": 43,
    "name": "Gabe Borne",
    "initiated": "",
    "labTestInProgress": "",
    "labTestCompleted": "",
    "diagnosisInProcess": "",
    "completed": "Y",
    "testpositive": "Y",
    "admit": "",
    "quarantine": "",
    "pincode": 400001
  },
  {
    "sno": 44,
    "name": "Algernon Blankhorn",
    "initiated": "",
    "labTestInProgress": "",
    "labTestCompleted": "",
    "diagnosisInProcess": "",
    "completed": "Y",
    "testpositive": "Y",
    "admit": "",
    "quarantine": "Y",
    "pincode": 700004
  },
  {
    "sno": 45,
    "name": "Valencia Hoy",
    "initiated": "",
    "labTestInProgress": "",
    "labTestCompleted": "",
    "diagnosisInProcess": "",
    "completed": "Y",
    "testpositive": "",
    "admit": "",
    "quarantine": "",
    "pincode": 110001
  },
  {
    "sno": 46,
    "name": "Breanne Adhams",
    "initiated": "",
    "labTestInProgress": "",
    "labTestCompleted": "",
    "diagnosisInProcess": "",
    "completed": "Y",
    "testpositive": "Y",
    "admit": "",
    "quarantine": "",
    "pincode": 560003
  },
  {
    "sno": 47,
    "name": "Dari Elloy",
    "initiated": "",
    "labTestInProgress": "",
    "labTestCompleted": "",
    "diagnosisInProcess": "",
    "completed": "Y",
    "testpositive": "Y",
    "admit": "",
    "quarantine": "",
    "pincode": 400001
  },
  {
    "sno": 48,
    "name": "Noland McIlroy",
    "initiated": "",
    "labTestInProgress": "",
    "labTestCompleted": "",
    "diagnosisInProcess": "",
    "completed": "Y",
    "testpositive": "Y",
    "admit": "",
    "quarantine": "Y",
    "pincode": 700004
  },
  {
    "sno": 49,
    "name": "Bradford Litton",
    "initiated": "",
    "labTestInProgress": "",
    "labTestCompleted": "",
    "diagnosisInProcess": "",
    "completed": "Y",
    "testpositive": "",
    "admit": "",
    "quarantine": "",
    "pincode": 110001
  },
  {
    "sno": 50,
    "name": "Deck Ashwell",
    "initiated": "",
    "labTestInProgress": "",
    "labTestCompleted": "",
    "diagnosisInProcess": "",
    "completed": "Y",
    "testpositive": "Y",
    "admit": "",
    "quarantine": "Y",
    "pincode": 560003
  },
  {
    "sno": 51,
    "name": "Norean De Vile",
    "initiated": "",
    "labTestInProgress": "",
    "labTestCompleted": "",
    "diagnosisInProcess": "",
    "completed": "Y",
    "testpositive": "Y",
    "admit": "",
    "quarantine": "",
    "pincode": 400001
  },
  {
    "sno": 52,
    "name": "Carola Danilin",
    "initiated": "",
    "labTestInProgress": "",
    "labTestCompleted": "",
    "diagnosisInProcess": "",
    "completed": "Y",
    "testpositive": "Y",
    "admit": "",
    "quarantine": "Y",
    "pincode": 700004
  },
  {
    "sno": 53,
    "name": "Mikael Lorne",
    "initiated": "",
    "labTestInProgress": "",
    "labTestCompleted": "",
    "diagnosisInProcess": "",
    "completed": "Y",
    "testpositive": "",
    "admit": "",
    "quarantine": "",
    "pincode": 110001
  },
  {
    "sno": 54,
    "name": "Omero Bellwood",
    "initiated": "",
    "labTestInProgress": "",
    "labTestCompleted": "",
    "diagnosisInProcess": "",
    "completed": "Y",
    "testpositive": "Y",
    "admit": "",
    "quarantine": "Y",
    "pincode": 560003
  },
  {
    "sno": 55,
    "name": "Kurtis Klehyn",
    "initiated": "",
    "labTestInProgress": "",
    "labTestCompleted": "",
    "diagnosisInProcess": "",
    "completed": "Y",
    "testpositive": "Y",
    "admit": "",
    "quarantine": "",
    "pincode": 400001
  },
  {
    "sno": 56,
    "name": "Derry Arendt",
    "initiated": "",
    "labTestInProgress": "",
    "labTestCompleted": "",
    "diagnosisInProcess": "",
    "completed": "Y",
    "testpositive": "Y",
    "admit": "",
    "quarantine": "Y",
    "pincode": 700004
  },
  {
    "sno": 57,
    "name": "Marcille Cushelly",
    "initiated": "",
    "labTestInProgress": "",
    "labTestCompleted": "",
    "diagnosisInProcess": "",
    "completed": "Y",
    "testpositive": "",
    "admit": "",
    "quarantine": "",
    "pincode": 110001
  },
  {
    "sno": 58,
    "name": "Myrah Danilin",
    "initiated": "",
    "labTestInProgress": "",
    "labTestCompleted": "",
    "diagnosisInProcess": "",
    "completed": "Y",
    "testpositive": "Y",
    "admit": "Y",
    "quarantine": "",
    "pincode": 560003
  },
  {
    "sno": 59,
    "name": "Inglis Phizackerly",
    "initiated": "",
    "labTestInProgress": "",
    "labTestCompleted": "",
    "diagnosisInProcess": "",
    "completed": "Y",
    "testpositive": "",
    "admit": "",
    "quarantine": "",
    "pincode": 400001
  },
  {
    "sno": 60,
    "name": "Agosto Giroldo",
    "initiated": "",
    "labTestInProgress": "",
    "labTestCompleted": "",
    "diagnosisInProcess": "",
    "completed": "Y",
    "testpositive": "Y",
    "admit": "Y",
    "quarantine": "",
    "pincode": 700004
  },
  {
    "sno": 61,
    "name": "Hadleigh Cammacke",
    "initiated": "",
    "labTestInProgress": "",
    "labTestCompleted": "",
    "diagnosisInProcess": "",
    "completed": "Y",
    "testpositive": "",
    "admit": "",
    "quarantine": "",
    "pincode": 110001
  },
  {
    "sno": 62,
    "name": "Hussein Loveard",
    "initiated": "",
    "labTestInProgress": "",
    "labTestCompleted": "",
    "diagnosisInProcess": "",
    "completed": "Y",
    "testpositive": "Y",
    "admit": "Y",
    "quarantine": "",
    "pincode": 560003
  },
  {
    "sno": 63,
    "name": "Dolph Helsdon",
    "initiated": "",
    "labTestInProgress": "",
    "labTestCompleted": "",
    "diagnosisInProcess": "",
    "completed": "Y",
    "testpositive": "",
    "admit": "",
    "quarantine": "",
    "pincode": 400001
  },
  {
    "sno": 64,
    "name": "Harman Webb",
    "initiated": "",
    "labTestInProgress": "",
    "labTestCompleted": "",
    "diagnosisInProcess": "",
    "completed": "Y",
    "testpositive": "Y",
    "admit": "Y",
    "quarantine": "",
    "pincode": 700004
  },
  {
    "sno": 65,
    "name": "Tonnie Clayborn",
    "initiated": "",
    "labTestInProgress": "",
    "labTestCompleted": "",
    "diagnosisInProcess": "",
    "completed": "Y",
    "testpositive": "",
    "admit": "",
    "quarantine": "",
    "pincode": 110001
  },
  {
    "sno": 66,
    "name": "Rani Resdale",
    "initiated": "",
    "labTestInProgress": "",
    "labTestCompleted": "",
    "diagnosisInProcess": "",
    "completed": "Y",
    "testpositive": "Y",
    "admit": "Y",
    "quarantine": "",
    "pincode": 560003
  },
  {
    "sno": 67,
    "name": "Rasla Joincey",
    "initiated": "",
    "labTestInProgress": "",
    "labTestCompleted": "",
    "diagnosisInProcess": "",
    "completed": "Y",
    "testpositive": "",
    "admit": "",
    "quarantine": "",
    "pincode": 400001
  },
  {
    "sno": 68,
    "name": "Laughton Drews",
    "initiated": "",
    "labTestInProgress": "",
    "labTestCompleted": "",
    "diagnosisInProcess": "",
    "completed": "Y",
    "testpositive": "Y",
    "admit": "Y",
    "quarantine": "",
    "pincode": 700004
  },
  {
    "sno": 69,
    "name": "Van Le Prevost",
    "initiated": "",
    "labTestInProgress": "",
    "labTestCompleted": "",
    "diagnosisInProcess": "",
    "completed": "Y",
    "testpositive": "",
    "admit": "",
    "quarantine": "",
    "pincode": 110001
  },
  {
    "sno": 70,
    "name": "Gaile Daskiewicz",
    "initiated": "",
    "labTestInProgress": "",
    "labTestCompleted": "",
    "diagnosisInProcess": "",
    "completed": "Y",
    "testpositive": "Y",
    "admit": "Y",
    "quarantine": "",
    "pincode": 560003
  },
  {
    "sno": 71,
    "name": "Siusan Grane",
    "initiated": "",
    "labTestInProgress": "",
    "labTestCompleted": "",
    "diagnosisInProcess": "",
    "completed": "Y",
    "testpositive": "",
    "admit": "",
    "quarantine": "",
    "pincode": 400001
  },
  {
    "sno": 72,
    "name": "Sebastien Appleyard",
    "initiated": "",
    "labTestInProgress": "",
    "labTestCompleted": "",
    "diagnosisInProcess": "",
    "completed": "Y",
    "testpositive": "Y",
    "admit": "Y",
    "quarantine": "",
    "pincode": 700004
  },
  {
    "sno": 73,
    "name": "Wyn Van der Linde",
    "initiated": "",
    "labTestInProgress": "",
    "labTestCompleted": "",
    "diagnosisInProcess": "",
    "completed": "Y",
    "testpositive": "",
    "admit": "",
    "quarantine": "",
    "pincode": 110001
  },
  {
    "sno": 74,
    "name": "Freddy Spellard",
    "initiated": "",
    "labTestInProgress": "",
    "labTestCompleted": "",
    "diagnosisInProcess": "",
    "completed": "Y",
    "testpositive": "Y",
    "admit": "Y",
    "quarantine": "",
    "pincode": 560003
  },
  {
    "sno": 75,
    "name": "Enrico Merryweather",
    "initiated": "",
    "labTestInProgress": "",
    "labTestCompleted": "",
    "diagnosisInProcess": "",
    "completed": "Y",
    "testpositive": "",
    "admit": "",
    "quarantine": "",
    "pincode": 400001
  },
  {
    "sno": 76,
    "name": "Kirbie Garrud",
    "initiated": "",
    "labTestInProgress": "",
    "labTestCompleted": "",
    "diagnosisInProcess": "",
    "completed": "Y",
    "testpositive": "Y",
    "admit": "Y",
    "quarantine": "",
    "pincode": 700004
  },
  {
    "sno": 77,
    "name": "Kirsteni Mosen",
    "initiated": "",
    "labTestInProgress": "",
    "labTestCompleted": "",
    "diagnosisInProcess": "",
    "completed": "Y",
    "testpositive": "",
    "admit": "",
    "quarantine": "",
    "pincode": 110001
  },
  {
    "sno": 78,
    "name": "Nathanil Smail",
    "initiated": "",
    "labTestInProgress": "",
    "labTestCompleted": "",
    "diagnosisInProcess": "",
    "completed": "Y",
    "testpositive": "",
    "admit": "",
    "quarantine": "",
    "pincode": 560003
  },
  {
    "sno": 79,
    "name": "Camille Lukins",
    "initiated": "",
    "labTestInProgress": "",
    "labTestCompleted": "",
    "diagnosisInProcess": "",
    "completed": "Y",
    "testpositive": "",
    "admit": "",
    "quarantine": "",
    "pincode": 400001
  },
  {
    "sno": 80,
    "name": "Cole Stead",
    "initiated": "",
    "labTestInProgress": "",
    "labTestCompleted": "",
    "diagnosisInProcess": "",
    "completed": "Y",
    "testpositive": "Y",
    "admit": "Y",
    "quarantine": "",
    "pincode": 700004
  },
  {
    "sno": 81,
    "name": "Christean Carson",
    "initiated": "",
    "labTestInProgress": "",
    "labTestCompleted": "",
    "diagnosisInProcess": "",
    "completed": "Y",
    "testpositive": "",
    "admit": "",
    "quarantine": "",
    "pincode": 110001
  },
  {
    "sno": 82,
    "name": "Sig Flatte",
    "initiated": "",
    "labTestInProgress": "",
    "labTestCompleted": "",
    "diagnosisInProcess": "",
    "completed": "Y",
    "testpositive": "",
    "admit": "",
    "quarantine": "",
    "pincode": 560003
  },
  {
    "sno": 83,
    "name": "Jermaine Kybird",
    "initiated": "",
    "labTestInProgress": "",
    "labTestCompleted": "",
    "diagnosisInProcess": "",
    "completed": "Y",
    "testpositive": "",
    "admit": "",
    "quarantine": "",
    "pincode": 400001
  },
  {
    "sno": 84,
    "name": "Leona Aimable",
    "initiated": "",
    "labTestInProgress": "",
    "labTestCompleted": "",
    "diagnosisInProcess": "",
    "completed": "Y",
    "testpositive": "Y",
    "admit": "Y",
    "quarantine": "",
    "pincode": 700004
  },
  {
    "sno": 85,
    "name": "Loreen Weldrake",
    "initiated": "",
    "labTestInProgress": "",
    "labTestCompleted": "",
    "diagnosisInProcess": "",
    "completed": "Y",
    "testpositive": "",
    "admit": "",
    "quarantine": "",
    "pincode": 110001
  },
  {
    "sno": 86,
    "name": "Myriam MacDavitt",
    "initiated": "",
    "labTestInProgress": "",
    "labTestCompleted": "",
    "diagnosisInProcess": "",
    "completed": "Y",
    "testpositive": "",
    "admit": "",
    "quarantine": "",
    "pincode": 560003
  },
  {
    "sno": 87,
    "name": "Trisha Matisse",
    "initiated": "",
    "labTestInProgress": "",
    "labTestCompleted": "",
    "diagnosisInProcess": "",
    "completed": "Y",
    "testpositive": "",
    "admit": "",
    "quarantine": "",
    "pincode": 400001
  },
  {
    "sno": 88,
    "name": "Frieda Denes",
    "initiated": "",
    "labTestInProgress": "",
    "labTestCompleted": "",
    "diagnosisInProcess": "",
    "completed": "Y",
    "testpositive": "",
    "admit": "",
    "quarantine": "",
    "pincode": 700004
  },
  {
    "sno": 89,
    "name": "Pascal Tidy",
    "initiated": "",
    "labTestInProgress": "",
    "labTestCompleted": "",
    "diagnosisInProcess": "",
    "completed": "Y",
    "testpositive": "",
    "admit": "",
    "quarantine": "",
    "pincode": 110001
  },
  {
    "sno": 90,
    "name": "Daria Renyard",
    "initiated": "",
    "labTestInProgress": "",
    "labTestCompleted": "",
    "diagnosisInProcess": "",
    "completed": "Y",
    "testpositive": "",
    "admit": "",
    "quarantine": "",
    "pincode": 560003
  },
  {
    "sno": 91,
    "name": "Arlyne Philott",
    "initiated": "",
    "labTestInProgress": "",
    "labTestCompleted": "",
    "diagnosisInProcess": "",
    "completed": "Y",
    "testpositive": "",
    "admit": "",
    "quarantine": "",
    "pincode": 400001
  },
  {
    "sno": 92,
    "name": "Brigida Christensen",
    "initiated": "",
    "labTestInProgress": "",
    "labTestCompleted": "",
    "diagnosisInProcess": "",
    "completed": "Y",
    "testpositive": "",
    "admit": "",
    "quarantine": "",
    "pincode": 700004
  },
  {
    "sno": 93,
    "name": "Silvia Sunner",
    "initiated": "",
    "labTestInProgress": "",
    "labTestCompleted": "",
    "diagnosisInProcess": "",
    "completed": "Y",
    "testpositive": "",
    "admit": "",
    "quarantine": "",
    "pincode": 110001
  },
  {
    "sno": 94,
    "name": "Hattie Trenbey",
    "initiated": "",
    "labTestInProgress": "",
    "labTestCompleted": "",
    "diagnosisInProcess": "",
    "completed": "Y",
    "testpositive": "",
    "admit": "",
    "quarantine": "",
    "pincode": 560003
  },
  {
    "sno": 95,
    "name": "Pattie Sadler",
    "initiated": "",
    "labTestInProgress": "",
    "labTestCompleted": "",
    "diagnosisInProcess": "",
    "completed": "Y",
    "testpositive": "",
    "admit": "",
    "quarantine": "",
    "pincode": 400001
  },
  {
    "sno": 96,
    "name": "Genni Miles",
    "initiated": "",
    "labTestInProgress": "",
    "labTestCompleted": "",
    "diagnosisInProcess": "",
    "completed": "Y",
    "testpositive": "",
    "admit": "",
    "quarantine": "",
    "pincode": 700004
  },
  {
    "sno": 97,
    "name": "Trevor Galsworthy",
    "initiated": "",
    "labTestInProgress": "",
    "labTestCompleted": "",
    "diagnosisInProcess": "",
    "completed": "Y",
    "testpositive": "",
    "admit": "",
    "quarantine": "",
    "pincode": 110001
  },
  {
    "sno": 98,
    "name": "Phoebe Davern",
    "initiated": "",
    "labTestInProgress": "",
    "labTestCompleted": "",
    "diagnosisInProcess": "",
    "completed": "Y",
    "testpositive": "",
    "admit": "",
    "quarantine": "",
    "pincode": 560003
  },
  {
    "sno": 99,
    "name": "Wilbert Simonite",
    "initiated": "",
    "labTestInProgress": "",
    "labTestCompleted": "",
    "diagnosisInProcess": "",
    "completed": "Y",
    "testpositive": "",
    "admit": "",
    "quarantine": "",
    "pincode": 400001
  },
  {
    "sno": 100,
    "name": "Dion Blackborn",
    "initiated": "",
    "labTestInProgress": "",
    "labTestCompleted": "",
    "diagnosisInProcess": "",
    "completed": "Y",
    "testpositive": "",
    "admit": "",
    "quarantine": "",
    "pincode": 700004
  },
  {
    "sno": 101,
    "name": "Gustav Tomisch",
    "initiated": "",
    "labTestInProgress": "",
    "labTestCompleted": "",
    "diagnosisInProcess": "Y",
    "completed": "",
    "testpositive": "",
    "admit": "",
    "quarantine": "",
    "pincode": 110001
  },
  {
    "sno": 102,
    "name": "Gert Coarser",
    "initiated": "",
    "labTestInProgress": "",
    "labTestCompleted": "",
    "diagnosisInProcess": "Y",
    "completed": "",
    "testpositive": "",
    "admit": "",
    "quarantine": "",
    "pincode": 560003
  },
  {
    "sno": 103,
    "name": "Orson Lamke",
    "initiated": "",
    "labTestInProgress": "",
    "labTestCompleted": "",
    "diagnosisInProcess": "Y",
    "completed": "",
    "testpositive": "",
    "admit": "",
    "quarantine": "",
    "pincode": 400001
  },
  {
    "sno": 104,
    "name": "Audrie Griston",
    "initiated": "",
    "labTestInProgress": "",
    "labTestCompleted": "",
    "diagnosisInProcess": "Y",
    "completed": "",
    "testpositive": "",
    "admit": "",
    "quarantine": "",
    "pincode": 700004
  },
  {
    "sno": 105,
    "name": "Christine De Bruyne",
    "initiated": "",
    "labTestInProgress": "",
    "labTestCompleted": "",
    "diagnosisInProcess": "Y",
    "completed": "",
    "testpositive": "",
    "admit": "",
    "quarantine": "",
    "pincode": 110001
  },
  {
    "sno": 106,
    "name": "Daven Dikle",
    "initiated": "",
    "labTestInProgress": "",
    "labTestCompleted": "",
    "diagnosisInProcess": "Y",
    "completed": "",
    "testpositive": "",
    "admit": "",
    "quarantine": "",
    "pincode": 560003
  },
  {
    "sno": 107,
    "name": "Stanton Cookes",
    "initiated": "",
    "labTestInProgress": "",
    "labTestCompleted": "",
    "diagnosisInProcess": "Y",
    "completed": "",
    "testpositive": "",
    "admit": "",
    "quarantine": "",
    "pincode": 400001
  },
  {
    "sno": 108,
    "name": "Lek Smieton",
    "initiated": "",
    "labTestInProgress": "",
    "labTestCompleted": "",
    "diagnosisInProcess": "Y",
    "completed": "",
    "testpositive": "",
    "admit": "",
    "quarantine": "",
    "pincode": 700004
  },
  {
    "sno": 109,
    "name": "Hillel Troy",
    "initiated": "",
    "labTestInProgress": "",
    "labTestCompleted": "",
    "diagnosisInProcess": "Y",
    "completed": "",
    "testpositive": "",
    "admit": "",
    "quarantine": "",
    "pincode": 110001
  },
  {
    "sno": 110,
    "name": "De Fieldgate",
    "initiated": "",
    "labTestInProgress": "",
    "labTestCompleted": "",
    "diagnosisInProcess": "Y",
    "completed": "",
    "testpositive": "",
    "admit": "",
    "quarantine": "",
    "pincode": 560003
  },
  {
    "sno": 111,
    "name": "Wallie Keemar",
    "initiated": "",
    "labTestInProgress": "",
    "labTestCompleted": "",
    "diagnosisInProcess": "Y",
    "completed": "",
    "testpositive": "",
    "admit": "",
    "quarantine": "",
    "pincode": 400001
  },
  {
    "sno": 112,
    "name": "Dionysus Moneti",
    "initiated": "",
    "labTestInProgress": "",
    "labTestCompleted": "",
    "diagnosisInProcess": "Y",
    "completed": "",
    "testpositive": "",
    "admit": "",
    "quarantine": "",
    "pincode": 700004
  },
  {
    "sno": 113,
    "name": "Fairleigh Dodwell",
    "initiated": "",
    "labTestInProgress": "",
    "labTestCompleted": "",
    "diagnosisInProcess": "Y",
    "completed": "",
    "testpositive": "",
    "admit": "",
    "quarantine": "",
    "pincode": 110001
  },
  {
    "sno": 114,
    "name": "Brinna Lafuente",
    "initiated": "",
    "labTestInProgress": "",
    "labTestCompleted": "",
    "diagnosisInProcess": "Y",
    "completed": "",
    "testpositive": "",
    "admit": "",
    "quarantine": "",
    "pincode": 560003
  },
  {
    "sno": 115,
    "name": "Dill Corinton",
    "initiated": "",
    "labTestInProgress": "",
    "labTestCompleted": "",
    "diagnosisInProcess": "Y",
    "completed": "",
    "testpositive": "",
    "admit": "",
    "quarantine": "",
    "pincode": 400001
  },
  {
    "sno": 116,
    "name": "Pansy Glavin",
    "initiated": "",
    "labTestInProgress": "",
    "labTestCompleted": "",
    "diagnosisInProcess": "Y",
    "completed": "",
    "testpositive": "",
    "admit": "",
    "quarantine": "",
    "pincode": 700004
  },
  {
    "sno": 117,
    "name": "Waly Workes",
    "initiated": "",
    "labTestInProgress": "",
    "labTestCompleted": "",
    "diagnosisInProcess": "Y",
    "completed": "",
    "testpositive": "",
    "admit": "",
    "quarantine": "",
    "pincode": 110001
  },
  {
    "sno": 118,
    "name": "Adel Gadney",
    "initiated": "",
    "labTestInProgress": "",
    "labTestCompleted": "",
    "diagnosisInProcess": "Y",
    "completed": "",
    "testpositive": "",
    "admit": "",
    "quarantine": "",
    "pincode": 560003
  },
  {
    "sno": 119,
    "name": "Arlene Glavias",
    "initiated": "",
    "labTestInProgress": "",
    "labTestCompleted": "",
    "diagnosisInProcess": "Y",
    "completed": "",
    "testpositive": "",
    "admit": "",
    "quarantine": "",
    "pincode": 400001
  },
  {
    "sno": 120,
    "name": "Bax Riseam",
    "initiated": "",
    "labTestInProgress": "",
    "labTestCompleted": "",
    "diagnosisInProcess": "Y",
    "completed": "",
    "testpositive": "",
    "admit": "",
    "quarantine": "",
    "pincode": 700004
  },
  {
    "sno": 121,
    "name": "Benjie Rix",
    "initiated": "",
    "labTestInProgress": "",
    "labTestCompleted": "",
    "diagnosisInProcess": "Y",
    "completed": "",
    "testpositive": "",
    "admit": "",
    "quarantine": "",
    "pincode": 110001
  },
  {
    "sno": 122,
    "name": "Margareta Jurries",
    "initiated": "",
    "labTestInProgress": "",
    "labTestCompleted": "",
    "diagnosisInProcess": "Y",
    "completed": "",
    "testpositive": "",
    "admit": "",
    "quarantine": "",
    "pincode": 560003
  },
  {
    "sno": 123,
    "name": "Shea Bachellier",
    "initiated": "",
    "labTestInProgress": "",
    "labTestCompleted": "",
    "diagnosisInProcess": "Y",
    "completed": "",
    "testpositive": "",
    "admit": "",
    "quarantine": "",
    "pincode": 400001
  },
  {
    "sno": 124,
    "name": "Edyth Godlip",
    "initiated": "",
    "labTestInProgress": "",
    "labTestCompleted": "",
    "diagnosisInProcess": "Y",
    "completed": "",
    "testpositive": "",
    "admit": "",
    "quarantine": "",
    "pincode": 700004
  },
  {
    "sno": 125,
    "name": "Frasier Andreacci",
    "initiated": "",
    "labTestInProgress": "",
    "labTestCompleted": "",
    "diagnosisInProcess": "Y",
    "completed": "",
    "testpositive": "",
    "admit": "",
    "quarantine": "",
    "pincode": 110001
  },
  {
    "sno": 126,
    "name": "Merell Boagey",
    "initiated": "",
    "labTestInProgress": "",
    "labTestCompleted": "",
    "diagnosisInProcess": "Y",
    "completed": "",
    "testpositive": "",
    "admit": "",
    "quarantine": "",
    "pincode": 560003
  },
  {
    "sno": 127,
    "name": "Cherye Mooring",
    "initiated": "",
    "labTestInProgress": "",
    "labTestCompleted": "",
    "diagnosisInProcess": "Y",
    "completed": "",
    "testpositive": "",
    "admit": "",
    "quarantine": "",
    "pincode": 400001
  },
  {
    "sno": 128,
    "name": "Alfreda Berkeley",
    "initiated": "",
    "labTestInProgress": "",
    "labTestCompleted": "",
    "diagnosisInProcess": "Y",
    "completed": "",
    "testpositive": "",
    "admit": "",
    "quarantine": "",
    "pincode": 700004
  },
  {
    "sno": 129,
    "name": "Sigismond Elliot",
    "initiated": "",
    "labTestInProgress": "",
    "labTestCompleted": "",
    "diagnosisInProcess": "Y",
    "completed": "",
    "testpositive": "",
    "admit": "",
    "quarantine": "",
    "pincode": 110001
  },
  {
    "sno": 130,
    "name": "Gonzales Longthorn",
    "initiated": "",
    "labTestInProgress": "",
    "labTestCompleted": "",
    "diagnosisInProcess": "Y",
    "completed": "",
    "testpositive": "",
    "admit": "",
    "quarantine": "",
    "pincode": 560003
  },
  {
    "sno": 131,
    "name": "Odele Edgeon",
    "initiated": "",
    "labTestInProgress": "",
    "labTestCompleted": "",
    "diagnosisInProcess": "Y",
    "completed": "",
    "testpositive": "",
    "admit": "",
    "quarantine": "",
    "pincode": 400001
  },
  {
    "sno": 132,
    "name": "Rosita Nichols",
    "initiated": "",
    "labTestInProgress": "",
    "labTestCompleted": "",
    "diagnosisInProcess": "Y",
    "completed": "",
    "testpositive": "",
    "admit": "",
    "quarantine": "",
    "pincode": 700004
  },
  {
    "sno": 133,
    "name": "Griff Trebilcock",
    "initiated": "",
    "labTestInProgress": "",
    "labTestCompleted": "",
    "diagnosisInProcess": "Y",
    "completed": "",
    "testpositive": "",
    "admit": "",
    "quarantine": "",
    "pincode": 110001
  },
  {
    "sno": 134,
    "name": "Siobhan Scholig",
    "initiated": "",
    "labTestInProgress": "",
    "labTestCompleted": "",
    "diagnosisInProcess": "Y",
    "completed": "",
    "testpositive": "",
    "admit": "",
    "quarantine": "",
    "pincode": 560003
  },
  {
    "sno": 135,
    "name": "Krisha Johansson",
    "initiated": "",
    "labTestInProgress": "",
    "labTestCompleted": "",
    "diagnosisInProcess": "Y",
    "completed": "",
    "testpositive": "",
    "admit": "",
    "quarantine": "",
    "pincode": 400001
  },
  {
    "sno": 136,
    "name": "Levy Austing",
    "initiated": "",
    "labTestInProgress": "",
    "labTestCompleted": "",
    "diagnosisInProcess": "Y",
    "completed": "",
    "testpositive": "",
    "admit": "",
    "quarantine": "",
    "pincode": 700004
  },
  {
    "sno": 137,
    "name": "Meriel Claricoats",
    "initiated": "",
    "labTestInProgress": "",
    "labTestCompleted": "",
    "diagnosisInProcess": "Y",
    "completed": "",
    "testpositive": "",
    "admit": "",
    "quarantine": "",
    "pincode": 110001
  },
  {
    "sno": 138,
    "name": "Cosette Matveiko",
    "initiated": "",
    "labTestInProgress": "",
    "labTestCompleted": "",
    "diagnosisInProcess": "Y",
    "completed": "",
    "testpositive": "",
    "admit": "",
    "quarantine": "",
    "pincode": 560003
  },
  {
    "sno": 139,
    "name": "Joey Dudden",
    "initiated": "",
    "labTestInProgress": "",
    "labTestCompleted": "",
    "diagnosisInProcess": "Y",
    "completed": "",
    "testpositive": "",
    "admit": "",
    "quarantine": "",
    "pincode": 400001
  },
  {
    "sno": 140,
    "name": "Boone Tollerton",
    "initiated": "",
    "labTestInProgress": "",
    "labTestCompleted": "",
    "diagnosisInProcess": "Y",
    "completed": "",
    "testpositive": "",
    "admit": "",
    "quarantine": "",
    "pincode": 700004
  },
  {
    "sno": 141,
    "name": "Ilario Carvill",
    "initiated": "",
    "labTestInProgress": "",
    "labTestCompleted": "",
    "diagnosisInProcess": "Y",
    "completed": "",
    "testpositive": "",
    "admit": "",
    "quarantine": "",
    "pincode": 110001
  },
  {
    "sno": 142,
    "name": "Renee Worssam",
    "initiated": "",
    "labTestInProgress": "",
    "labTestCompleted": "",
    "diagnosisInProcess": "Y",
    "completed": "",
    "testpositive": "",
    "admit": "",
    "quarantine": "",
    "pincode": 560003
  },
  {
    "sno": 143,
    "name": "Kelli Veneur",
    "initiated": "",
    "labTestInProgress": "",
    "labTestCompleted": "",
    "diagnosisInProcess": "Y",
    "completed": "",
    "testpositive": "",
    "admit": "",
    "quarantine": "",
    "pincode": 400001
  },
  {
    "sno": 144,
    "name": "Robbie Cowlam",
    "initiated": "",
    "labTestInProgress": "",
    "labTestCompleted": "",
    "diagnosisInProcess": "Y",
    "completed": "",
    "testpositive": "",
    "admit": "",
    "quarantine": "",
    "pincode": 700004
  },
  {
    "sno": 145,
    "name": "Tedi Peet",
    "initiated": "",
    "labTestInProgress": "",
    "labTestCompleted": "",
    "diagnosisInProcess": "Y",
    "completed": "",
    "testpositive": "",
    "admit": "",
    "quarantine": "",
    "pincode": 110001
  },
  {
    "sno": 146,
    "name": "Maureen Valett",
    "initiated": "",
    "labTestInProgress": "",
    "labTestCompleted": "",
    "diagnosisInProcess": "Y",
    "completed": "",
    "testpositive": "",
    "admit": "",
    "quarantine": "",
    "pincode": 560003
  },
  {
    "sno": 147,
    "name": "Janith Doncom",
    "initiated": "",
    "labTestInProgress": "",
    "labTestCompleted": "",
    "diagnosisInProcess": "Y",
    "completed": "",
    "testpositive": "",
    "admit": "",
    "quarantine": "",
    "pincode": 400001
  },
  {
    "sno": 148,
    "name": "Kaylyn Sharratt",
    "initiated": "",
    "labTestInProgress": "",
    "labTestCompleted": "",
    "diagnosisInProcess": "Y",
    "completed": "",
    "testpositive": "",
    "admit": "",
    "quarantine": "",
    "pincode": 700004
  },
  {
    "sno": 149,
    "name": "Marita Hockell",
    "initiated": "",
    "labTestInProgress": "",
    "labTestCompleted": "",
    "diagnosisInProcess": "Y",
    "completed": "",
    "testpositive": "",
    "admit": "",
    "quarantine": "",
    "pincode": 110001
  },
  {
    "sno": 150,
    "name": "Layla Offa",
    "initiated": "",
    "labTestInProgress": "",
    "labTestCompleted": "",
    "diagnosisInProcess": "Y",
    "completed": "",
    "testpositive": "",
    "admit": "",
    "quarantine": "",
    "pincode": 560003
  },
  {
    "sno": 151,
    "name": "Suzy Abrahamowitcz",
    "initiated": "Y",
    "labTestInProgress": "",
    "labTestCompleted": "",
    "diagnosisInProcess": "",
    "completed": "",
    "testpositive": "",
    "admit": "",
    "quarantine": "",
    "pincode": 400001
  },
  {
    "sno": 152,
    "name": "Mal Barts",
    "initiated": "Y",
    "labTestInProgress": "",
    "labTestCompleted": "",
    "diagnosisInProcess": "",
    "completed": "",
    "testpositive": "",
    "admit": "",
    "quarantine": "",
    "pincode": 700004
  },
  {
    "sno": 153,
    "name": "Howey Heinke",
    "initiated": "Y",
    "labTestInProgress": "",
    "labTestCompleted": "",
    "diagnosisInProcess": "",
    "completed": "",
    "testpositive": "",
    "admit": "",
    "quarantine": "",
    "pincode": 110001
  },
  {
    "sno": 154,
    "name": "Tirrell Steade",
    "initiated": "Y",
    "labTestInProgress": "",
    "labTestCompleted": "",
    "diagnosisInProcess": "",
    "completed": "",
    "testpositive": "",
    "admit": "",
    "quarantine": "",
    "pincode": 560003
  },
  {
    "sno": 155,
    "name": "Kathryn Jedrzejkiewicz",
    "initiated": "Y",
    "labTestInProgress": "",
    "labTestCompleted": "",
    "diagnosisInProcess": "",
    "completed": "",
    "testpositive": "",
    "admit": "",
    "quarantine": "",
    "pincode": 400001
  },
  {
    "sno": 156,
    "name": "Spense Aylin",
    "initiated": "Y",
    "labTestInProgress": "",
    "labTestCompleted": "",
    "diagnosisInProcess": "",
    "completed": "",
    "testpositive": "",
    "admit": "",
    "quarantine": "",
    "pincode": 700004
  },
  {
    "sno": 157,
    "name": "Harland Smurfit",
    "initiated": "Y",
    "labTestInProgress": "",
    "labTestCompleted": "",
    "diagnosisInProcess": "",
    "completed": "",
    "testpositive": "",
    "admit": "",
    "quarantine": "",
    "pincode": 110001
  },
  {
    "sno": 158,
    "name": "Gaynor Hurt",
    "initiated": "Y",
    "labTestInProgress": "",
    "labTestCompleted": "",
    "diagnosisInProcess": "",
    "completed": "",
    "testpositive": "",
    "admit": "",
    "quarantine": "",
    "pincode": 560003
  },
  {
    "sno": 159,
    "name": "Ophelia Schanke",
    "initiated": "Y",
    "labTestInProgress": "",
    "labTestCompleted": "",
    "diagnosisInProcess": "",
    "completed": "",
    "testpositive": "",
    "admit": "",
    "quarantine": "",
    "pincode": 400001
  },
  {
    "sno": 160,
    "name": "Kelsi Cosin",
    "initiated": "Y",
    "labTestInProgress": "",
    "labTestCompleted": "",
    "diagnosisInProcess": "",
    "completed": "",
    "testpositive": "",
    "admit": "",
    "quarantine": "",
    "pincode": 700004
  },
  {
    "sno": 161,
    "name": "Padriac Markwick",
    "initiated": "Y",
    "labTestInProgress": "",
    "labTestCompleted": "",
    "diagnosisInProcess": "",
    "completed": "",
    "testpositive": "",
    "admit": "",
    "quarantine": "",
    "pincode": 110001
  },
  {
    "sno": 162,
    "name": "Inna Chilvers",
    "initiated": "",
    "labTestInProgress": "Y",
    "labTestCompleted": "",
    "diagnosisInProcess": "",
    "completed": "",
    "testpositive": "",
    "admit": "",
    "quarantine": "",
    "pincode": 560003
  },
  {
    "sno": 163,
    "name": "Sigismundo Shekle",
    "initiated": "",
    "labTestInProgress": "Y",
    "labTestCompleted": "",
    "diagnosisInProcess": "",
    "completed": "",
    "testpositive": "",
    "admit": "",
    "quarantine": "",
    "pincode": 400001
  },
  {
    "sno": 164,
    "name": "Sky Yurov",
    "initiated": "",
    "labTestInProgress": "Y",
    "labTestCompleted": "",
    "diagnosisInProcess": "",
    "completed": "",
    "testpositive": "",
    "admit": "",
    "quarantine": "",
    "pincode": 700004
  },
  {
    "sno": 165,
    "name": "Garland Wennington",
    "initiated": "",
    "labTestInProgress": "Y",
    "labTestCompleted": "",
    "diagnosisInProcess": "",
    "completed": "",
    "testpositive": "",
    "admit": "",
    "quarantine": "",
    "pincode": 110001
  },
  {
    "sno": 166,
    "name": "Harlin Dittson",
    "initiated": "",
    "labTestInProgress": "Y",
    "labTestCompleted": "",
    "diagnosisInProcess": "",
    "completed": "",
    "testpositive": "",
    "admit": "",
    "quarantine": "",
    "pincode": 560003
  },
  {
    "sno": 167,
    "name": "Dari Voyce",
    "initiated": "",
    "labTestInProgress": "Y",
    "labTestCompleted": "",
    "diagnosisInProcess": "",
    "completed": "",
    "testpositive": "",
    "admit": "",
    "quarantine": "",
    "pincode": 400001
  },
  {
    "sno": 168,
    "name": "Ed Kulas",
    "initiated": "",
    "labTestInProgress": "Y",
    "labTestCompleted": "",
    "diagnosisInProcess": "",
    "completed": "",
    "testpositive": "",
    "admit": "",
    "quarantine": "",
    "pincode": 700004
  },
  {
    "sno": 169,
    "name": "Olive Oddy",
    "initiated": "",
    "labTestInProgress": "Y",
    "labTestCompleted": "",
    "diagnosisInProcess": "",
    "completed": "",
    "testpositive": "",
    "admit": "",
    "quarantine": "",
    "pincode": 110001
  },
  {
    "sno": 170,
    "name": "Quincey Burberye",
    "initiated": "",
    "labTestInProgress": "Y",
    "labTestCompleted": "",
    "diagnosisInProcess": "",
    "completed": "",
    "testpositive": "",
    "admit": "",
    "quarantine": "",
    "pincode": 560003
  },
  {
    "sno": 171,
    "name": "Jordan Older",
    "initiated": "",
    "labTestInProgress": "",
    "labTestCompleted": "Y",
    "diagnosisInProcess": "",
    "completed": "",
    "testpositive": "",
    "admit": "",
    "quarantine": "",
    "pincode": 400001
  },
  {
    "sno": 172,
    "name": "Peria Halton",
    "initiated": "",
    "labTestInProgress": "",
    "labTestCompleted": "Y",
    "diagnosisInProcess": "",
    "completed": "",
    "testpositive": "",
    "admit": "",
    "quarantine": "",
    "pincode": 700004
  },
  {
    "sno": 173,
    "name": "Brenna Hansford",
    "initiated": "",
    "labTestInProgress": "",
    "labTestCompleted": "Y",
    "diagnosisInProcess": "",
    "completed": "",
    "testpositive": "",
    "admit": "",
    "quarantine": "",
    "pincode": 110001
  },
  {
    "sno": 174,
    "name": "Kerrin Allchin",
    "initiated": "",
    "labTestInProgress": "",
    "labTestCompleted": "Y",
    "diagnosisInProcess": "",
    "completed": "",
    "testpositive": "",
    "admit": "",
    "quarantine": "",
    "pincode": 560003
  },
  {
    "sno": 175,
    "name": "Jackquelin Roloff",
    "initiated": "",
    "labTestInProgress": "",
    "labTestCompleted": "Y",
    "diagnosisInProcess": "",
    "completed": "",
    "testpositive": "",
    "admit": "",
    "quarantine": "",
    "pincode": 400001
  },
  {
    "sno": 176,
    "name": "Bern Barszczewski",
    "initiated": "",
    "labTestInProgress": "",
    "labTestCompleted": "Y",
    "diagnosisInProcess": "",
    "completed": "",
    "testpositive": "",
    "admit": "",
    "quarantine": "",
    "pincode": 700004
  },
  {
    "sno": 177,
    "name": "Henka Eaglen",
    "initiated": "",
    "labTestInProgress": "",
    "labTestCompleted": "Y",
    "diagnosisInProcess": "",
    "completed": "",
    "testpositive": "",
    "admit": "",
    "quarantine": "",
    "pincode": 110001
  },
  {
    "sno": 178,
    "name": "Ahmed Tunaclift",
    "initiated": "",
    "labTestInProgress": "",
    "labTestCompleted": "Y",
    "diagnosisInProcess": "",
    "completed": "",
    "testpositive": "",
    "admit": "",
    "quarantine": "",
    "pincode": 560003
  },
  {
    "sno": 179,
    "name": "Lea Petrol",
    "initiated": "",
    "labTestInProgress": "",
    "labTestCompleted": "Y",
    "diagnosisInProcess": "",
    "completed": "",
    "testpositive": "",
    "admit": "",
    "quarantine": "",
    "pincode": 400001
  },
  {
    "sno": 180,
    "name": "Hercules Pendlebury",
    "initiated": "",
    "labTestInProgress": "",
    "labTestCompleted": "Y",
    "diagnosisInProcess": "",
    "completed": "",
    "testpositive": "",
    "admit": "",
    "quarantine": "",
    "pincode": 700004
  },
  {
    "sno": 181,
    "name": "Horton Jeremiah",
    "initiated": "",
    "labTestInProgress": "",
    "labTestCompleted": "Y",
    "diagnosisInProcess": "",
    "completed": "",
    "testpositive": "",
    "admit": "",
    "quarantine": "",
    "pincode": 110001
  },
  {
    "sno": 182,
    "name": "Melinde Concklin",
    "initiated": "",
    "labTestInProgress": "",
    "labTestCompleted": "Y",
    "diagnosisInProcess": "",
    "completed": "",
    "testpositive": "",
    "admit": "",
    "quarantine": "",
    "pincode": 560003
  },
  {
    "sno": 183,
    "name": "Cynthie Tribble",
    "initiated": "",
    "labTestInProgress": "",
    "labTestCompleted": "Y",
    "diagnosisInProcess": "",
    "completed": "",
    "testpositive": "",
    "admit": "",
    "quarantine": "",
    "pincode": 400001
  },
  {
    "sno": 184,
    "name": "Darlene Vallery",
    "initiated": "",
    "labTestInProgress": "",
    "labTestCompleted": "Y",
    "diagnosisInProcess": "",
    "completed": "",
    "testpositive": "",
    "admit": "",
    "quarantine": "",
    "pincode": 700004
  },
  {
    "sno": 185,
    "name": "Dorelle Labitt",
    "initiated": "",
    "labTestInProgress": "",
    "labTestCompleted": "Y",
    "diagnosisInProcess": "",
    "completed": "",
    "testpositive": "",
    "admit": "",
    "quarantine": "",
    "pincode": 110001
  },
  {
    "sno": 186,
    "name": "Palmer Tivenan",
    "initiated": "",
    "labTestInProgress": "",
    "labTestCompleted": "Y",
    "diagnosisInProcess": "",
    "completed": "",
    "testpositive": "",
    "admit": "",
    "quarantine": "",
    "pincode": 560003
  },
  {
    "sno": 187,
    "name": "Farlee Davers",
    "initiated": "",
    "labTestInProgress": "",
    "labTestCompleted": "Y",
    "diagnosisInProcess": "",
    "completed": "",
    "testpositive": "",
    "admit": "",
    "quarantine": "",
    "pincode": 400001
  },
  {
    "sno": 188,
    "name": "Margot Getch",
    "initiated": "",
    "labTestInProgress": "",
    "labTestCompleted": "Y",
    "diagnosisInProcess": "",
    "completed": "",
    "testpositive": "",
    "admit": "",
    "quarantine": "",
    "pincode": 700004
  },
  {
    "sno": 189,
    "name": "Florry Veque",
    "initiated": "",
    "labTestInProgress": "",
    "labTestCompleted": "Y",
    "diagnosisInProcess": "",
    "completed": "",
    "testpositive": "",
    "admit": "",
    "quarantine": "",
    "pincode": 110001
  },
  {
    "sno": 190,
    "name": "Franzen Dumphries",
    "initiated": "",
    "labTestInProgress": "",
    "labTestCompleted": "Y",
    "diagnosisInProcess": "",
    "completed": "",
    "testpositive": "",
    "admit": "",
    "quarantine": "",
    "pincode": 560003
  },
  {
    "sno": 191,
    "name": "Base O'Dogherty",
    "initiated": "",
    "labTestInProgress": "",
    "labTestCompleted": "Y",
    "diagnosisInProcess": "",
    "completed": "",
    "testpositive": "",
    "admit": "",
    "quarantine": "",
    "pincode": 400001
  },
  {
    "sno": 192,
    "name": "Minnnie Matashkin",
    "initiated": "",
    "labTestInProgress": "",
    "labTestCompleted": "Y",
    "diagnosisInProcess": "",
    "completed": "",
    "testpositive": "",
    "admit": "",
    "quarantine": "",
    "pincode": 700004
  },
  {
    "sno": 193,
    "name": "Salim Kobes",
    "initiated": "",
    "labTestInProgress": "",
    "labTestCompleted": "Y",
    "diagnosisInProcess": "",
    "completed": "",
    "testpositive": "",
    "admit": "",
    "quarantine": "",
    "pincode": 110001
  },
  {
    "sno": 194,
    "name": "Raquela Cocker",
    "initiated": "",
    "labTestInProgress": "",
    "labTestCompleted": "Y",
    "diagnosisInProcess": "",
    "completed": "",
    "testpositive": "",
    "admit": "",
    "quarantine": "",
    "pincode": 560003
  },
  {
    "sno": 195,
    "name": "Isidoro Biffen",
    "initiated": "",
    "labTestInProgress": "",
    "labTestCompleted": "Y",
    "diagnosisInProcess": "",
    "completed": "",
    "testpositive": "",
    "admit": "",
    "quarantine": "",
    "pincode": 400001
  },
  {
    "sno": 196,
    "name": "Colby Beeck",
    "initiated": "",
    "labTestInProgress": "",
    "labTestCompleted": "Y",
    "diagnosisInProcess": "",
    "completed": "",
    "testpositive": "",
    "admit": "",
    "quarantine": "",
    "pincode": 700004
  },
  {
    "sno": 197,
    "name": "Erhart Motherwell",
    "initiated": "",
    "labTestInProgress": "",
    "labTestCompleted": "Y",
    "diagnosisInProcess": "",
    "completed": "",
    "testpositive": "",
    "admit": "",
    "quarantine": "",
    "pincode": 110001
  },
  {
    "sno": 198,
    "name": "Gram Boyles",
    "initiated": "",
    "labTestInProgress": "",
    "labTestCompleted": "Y",
    "diagnosisInProcess": "",
    "completed": "",
    "testpositive": "",
    "admit": "",
    "quarantine": "",
    "pincode": 560003
  },
  {
    "sno": 199,
    "name": "Thibaud Marzelli",
    "initiated": "",
    "labTestInProgress": "",
    "labTestCompleted": "Y",
    "diagnosisInProcess": "",
    "completed": "",
    "testpositive": "",
    "admit": "",
    "quarantine": "",
    "pincode": 400001
  }
]